{
    "links": {
        "self": "http://www.neowsapp.com/rest/v1/neo/54097967?api_key=iIulBulltgU6a56xZRHN4H3l9WmuAYTsLGpBGhQ2"
    },
    "id": "54097967",
    "neo_reference_id": "54097967",
    "name": "(2020 XQ)",
    "designation": "2020 XQ",
    "nasa_jpl_url": "http://ssd.jpl.nasa.gov/sbdb.cgi?sstr=54097967",
    "absolute_magnitude_h": 21.5,
    "estimated_diameter": {
        "kilometers": {
            "estimated_diameter_min": 0.1332155667,
            "estimated_diameter_max": 0.2978790628
        },
        "meters": {
            "estimated_diameter_min": 133.2155666981,
            "estimated_diameter_max": 297.8790627982
        },
        "miles": {
            "estimated_diameter_min": 0.0827762899,
            "estimated_diameter_max": 0.1850934111
        },
        "feet": {
            "estimated_diameter_min": 437.0589598459,
            "estimated_diameter_max": 977.2935443908
        }
    },
    "is_potentially_hazardous_asteroid": true,
    "close_approach_data": [
        {
            "close_approach_date": "1926-11-19",
            "close_approach_date_full": "1926-Nov-19 20:30",
            "epoch_date_close_approach": -1360639800000,
            "relative_velocity": {
                "kilometers_per_second": "23.221597523",
                "kilometers_per_hour": "83597.7510828184",
                "miles_per_hour": "51944.3914992101"
            },
            "miss_distance": {
                "astronomical": "0.0987499502",
                "lunar": "38.4137306278",
                "kilometers": "14772782.212526074",
                "miles": "9179381.2133008612"
            },
            "orbiting_body": "Earth"
        },
        {
            "close_approach_date": "1934-12-05",
            "close_approach_date_full": "1934-Dec-05 14:42",
            "epoch_date_close_approach": -1106817480000,
            "relative_velocity": {
                "kilometers_per_second": "32.775986865",
                "kilometers_per_hour": "117993.5527140076",
                "miles_per_hour": "73316.6050183232"
            },
            "miss_distance": {
                "astronomical": "0.4280525681",
                "lunar": "166.5124489909",
                "kilometers": "64035752.435789947",
                "miles": "39789971.4781053886"
            },
            "orbiting_body": "Earth"
        },
        {
            "close_approach_date": "2020-11-10",
            "close_approach_date_full": "2020-Nov-10 16:03",
            "epoch_date_close_approach": 1605024180000,
            "relative_velocity": {
                "kilometers_per_second": "18.8207033431",
                "kilometers_per_hour": "67754.5320351157",
                "miles_per_hour": "42100.0313081529"
            },
            "miss_distance": {
                "astronomical": "0.0701881633",
                "lunar": "27.3031955237",
                "kilometers": "10499999.728892171",
                "miles": "6524397.2912111198"
            },
            "orbiting_body": "Earth"
        },
        {
            "close_approach_date": "2114-09-09",
            "close_approach_date_full": "2114-Sep-09 22:01",
            "epoch_date_close_approach": 4565973660000,
            "relative_velocity": {
                "kilometers_per_second": "16.9550787919",
                "kilometers_per_hour": "61038.2836506964",
                "miles_per_hour": "37926.8157495119"
            },
            "miss_distance": {
                "astronomical": "0.3988161599",
                "lunar": "155.1394862011",
                "kilometers": "59662048.042619413",
                "miles": "37072277.5893293794"
            },
            "orbiting_body": "Earth"
        }
    ],
    "orbital_data": {
        "orbit_id": "2",
        "orbit_determination_date": "2020-12-07 05:27:03",
        "first_observation_date": "2020-11-13",
        "last_observation_date": "2020-12-07",
        "data_arc_in_days": 24,
        "observations_used": 34,
        "orbit_uncertainty": "8",
        "minimum_orbit_intersection": ".0214313",
        "jupiter_tisserand_invariant": "3.580",
        "epoch_osculation": "2459184.5",
        "eccentricity": ".6523118519565172",
        "semi_major_axis": "1.930616898444981",
        "inclination": "16.66717856633544",
        "ascending_node_longitude": "56.07374367237728",
        "orbital_period": "979.8116110437205",
        "perihelion_distance": ".6712526140017883",
        "perihelion_argument": "275.8922895808201",
        "aphelion_distance": "3.189981182888174",
        "perihelion_time": "2459117.617967063709",
        "mean_anomaly": "24.57363393705526",
        "mean_motion": ".367417568788064",
        "equinox": "J2000",
        "orbit_class": {
            "orbit_class_type": "APO",
            "orbit_class_description": "Near-Earth asteroid orbits which cross the Earth’s orbit similar to that of 1862 Apollo",
            "orbit_class_range": "a (semi-major axis) > 1.0 AU; q (perihelion) < 1.017 AU"
        }
    },
    "is_sentry_object": false
}